NORAD_CAT_ID,OBJECT_NAME,OBJECT_TYPE,EPOCH,MEAN_MOTION,ECCENTRICITY,INCLINATION,RA_OF_ASC_NODE,ARG_OF_PERICENTER,MEAN_ANOMALY,BSTAR,MEAN_MOTION_DOT,MEAN_MOTION_DDOT,TLE_LINE0,TLE_LINE1,TLE_LINE2,SEMIMAJOR_AXIS,PERIOD,APOGEE,PERIGEE,DECAYED
53982.0,STARLINK-5120,PAYLOAD,2023-05-30 05:36:34,15.08837275,0.0001225,53.2178,88.2215,88.5761,271.5371,-4.6207e-05,-1.023e-05,0.0,0 STARLINK-5120,1 53982U 22125U   23150.23373828 -.00001023  00000-0 -46207-4 0  9997,2 53982  53.2178  88.2215 0001225  88.5761 271.5371 15.08837275 36300,6917.889,95.438,540.601,538.906,0.0
53982.0,STARLINK-5120,PAYLOAD,2023-05-31 02:16:34,15.08851254,0.0001137,53.2183,84.3558,88.2504,271.8618,9.6722e-05,1.252e-05,0.0,0 STARLINK-5120,1 53982U 22125U   23151.09484402  .00001252  00000-0  96722-4 0  9992,2 53982  53.2183  84.3558 0001137  88.2504 271.8618 15.08851254 36510,6917.846,95.437,540.498,538.924,0.0
53982.0,STARLINK-5120,PAYLOAD,2023-05-31 05:27:20,15.08853953,0.0001146,53.2183,83.7608,88.8893,271.223,0.00011774,1.587e-05,0.0,0 STARLINK-5120,1 53982U 22125U   23151.22732152  .00001587  00000-0  11774-3 0  9999,2 53982  53.2183  83.7608 0001146  88.8893 271.2230 15.08853953 36451,6917.838,95.437,540.496,538.91,0.0
53982.0,STARLINK-5120,PAYLOAD,2023-05-31 19:45:50,15.08832542,8.96e-05,53.2185,81.085,83.6208,276.4886,5.245e-05,5.47e-06,0.0,0 STARLINK-5120,1 53982U 22125U   23151.82349813  .00000547  00000-0  52450-4 0  9995,2 53982  53.2185  81.0850 0000896  83.6208 276.4886 15.08832542 36542,6917.903,95.438,540.388,539.148,0.0
53982.0,STARLINK-5120,PAYLOAD,2023-06-01 02:07:22,15.08841312,0.0001087,53.2181,79.8962,89.8588,270.2528,0.00014002,1.941e-05,0.0,0 STARLINK-5120,1 53982U 22125U   23152.08845292  .00001941  00000-0  14002-3 0  9995,2 53982  53.2181  79.8962 0001087  89.8588 270.2528 15.08841312 36662,6917.876,95.437,540.493,538.989,0.0
53982.0,STARLINK-5120,PAYLOAD,2023-06-02 01:58:09,15.08841501,0.0001116,53.2177,75.4367,89.5612,270.5508,-6.3371e-05,-1.296e-05,0.0,0 STARLINK-5120,1 53982U 22125U   23153.08205415 -.00001296  00000-0 -63371-4 0  9992,2 53982  53.2177  75.4367 0001116  89.5612 270.5508 15.08841501 36814,6917.876,95.437,540.513,538.969,0.0
53982.0,STARLINK-5120,PAYLOAD,2023-06-02 17:52:01,15.08833696,0.0001099,53.218,72.4636,94.4316,265.6802,5.7035e-05,6.2e-06,0.0,0 STARLINK-5120,1 53982U 22125U   23153.74445981  .00000620  00000-0  57035-4 0  9997,2 53982  53.2180  72.4636 0001099  94.4316 265.6802 15.08833696 36919,6917.9,95.438,540.525,539.004,0.0
53982.0,STARLINK-5120,PAYLOAD,2023-06-03 04:59:43,15.08842151,0.0001041,53.2178,70.3811,92.9115,267.1997,0.00010119,1.323e-05,0.0,0 STARLINK-5120,1 53982U 22125U   23154.20813725  .00001323  00000-0  10119-3 0  9996,2 53982  53.2178  70.3811 0001041  92.9115 267.1997 15.08842151 36902,6917.874,95.437,540.459,539.019,0.0
53982.0,STARLINK-5120,PAYLOAD,2023-06-04 03:15:06,15.08847093,0.0001052,53.2171,66.2176,101.3946,258.7164,8.8863e-05,1.127e-05,0.0,0 STARLINK-5120,1 53982U 22125U   23155.13549606  .00001127  00000-0  88863-4 0  9997,2 53982  53.2171  66.2176 0001052 101.3946 258.7164 15.08847093 37040,6917.859,95.437,540.451,538.996,0.0
53982.0,STARLINK-5120,PAYLOAD,2023-06-05 03:05:54,15.08840122,9.27e-05,53.2182,61.7561,94.9958,265.114,9.9809e-05,1.301e-05,0.0,0 STARLINK-5120,1 53982U 22125U   23156.12910153  .00001301  00000-0  99809-4 0  9992,2 53982  53.2182  61.7561 0000927  94.9958 265.1140 15.08840122 37277,6917.88,95.438,540.386,539.104,0.0
53982.0,STARLINK-5120,PAYLOAD,2023-06-05 11:02:49,15.08845014,9.44e-05,53.2189,60.269,81.9488,278.1611,2.9136e-05,1.76e-06,0.0,0 STARLINK-5120,1 53982U 22125U   23156.46029879  .00000176  00000-0  29136-4 0  9990,2 53982  53.2189  60.2690 0000944  81.9488 278.1611 15.08845014 37243,6917.865,95.437,540.383,539.077,0.0
53982.0,STARLINK-5120,PAYLOAD,2023-06-05 17:24:22,15.08841185,0.0001146,53.218,59.0808,102.7917,257.3203,6.1389e-05,6.89e-06,0.0,0 STARLINK-5120,1 53982U 22125U   23156.72526158  .00000689  00000-0  61389-4 0  9996,2 53982  53.2180  59.0808 0001146 102.7917 257.3203 15.08841185 37280,6917.877,95.437,540.535,538.949,0.0
53982.0,STARLINK-5120,PAYLOAD,2023-06-06 02:56:40,15.08851384,0.0001197,53.219,57.2969,93.7373,266.3756,7.6356e-05,9.28e-06,0.0,0 STARLINK-5120,1 53982U 22125U   23157.12269408  .00000928  00000-0  76356-4 0  9999,2 53982  53.2190  57.2969 0001197  93.7373 266.3756 15.08851384 37421,6917.846,95.437,540.539,538.883,0.0
53982.0,STARLINK-5120,PAYLOAD,2023-06-06 23:36:42,15.08841861,0.0001315,53.2189,53.4325,86.8946,273.2197,3.5971e-05,2.85e-06,0.0,0 STARLINK-5120,1 53982U 22125U   23157.98382258  .00000285  00000-0  35971-4 0  9996,2 53982  53.2189  53.4325 0001315  86.8946 273.2197 15.08841861 37553,6917.875,95.437,540.649,538.83,0.0
53982.0,STARLINK-5120,PAYLOAD,2023-06-07 02:47:28,15.08847302,0.0001239,53.2191,52.8373,90.7035,269.4099,5.8058e-05,6.36e-06,0.0,0 STARLINK-5120,1 53982U 22125U   23158.11629780  .00000636  00000-0  58058-4 0  9997,2 53982  53.2191  52.8373 0001239  90.7035 269.4099 15.08847302 37497,6917.858,95.437,540.58,538.866,0.0
53982.0,STARLINK-5120,PAYLOAD,2023-06-07 17:05:57,15.08830219,0.0001377,53.2217,50.1642,92.7873,267.3277,7.6005e-05,9.22e-06,0.0,0 STARLINK-5120,1 53982U 22125U   23158.71246930  .00000922  00000-0  76005-4 0  9995,2 53982  53.2217  50.1642 0001377  92.7873 267.3277 15.08830219 37664,6917.91,95.438,540.728,538.823,0.0
53982.0,STARLINK-5120,PAYLOAD,2023-06-07 21:52:06,15.08834602,0.0001401,53.2203,49.2712,90.9804,269.1349,-2.799e-06,-3.32e-06,0.0,0 STARLINK-5120,1 53982U 22125U   23158.91118931 -.00000332  00000-0 -27990-5 0  9993,2 53982  53.2203  49.2712 0001401  90.9804 269.1349 15.08834602 37613,6917.897,95.438,540.731,538.793,0.0
53982.0,STARLINK-5120,PAYLOAD,2023-06-09 02:29:02,15.08850905,0.0001259,53.2185,43.9159,96.1086,264.0049,0.00012219,1.658e-05,0.0,0 STARLINK-5120,1 53982U 22125U   23160.10349700  .00001658  00000-0  12219-3 0  9993,2 53982  53.2185  43.9159 0001259  96.1086 264.0049 15.08850905 37872,6917.847,95.437,540.583,538.841,0.0
53982.0,STARLINK-5120,PAYLOAD,2023-06-09 08:50:35,15.0884427,0.000122,53.2177,42.7237,75.1797,284.933,4.879e-05,4.89e-06,0.0,0 STARLINK-5120,1 53982U 22125U   23160.36846257  .00000489  00000-0  48790-4 0  9995,2 53982  53.2177  42.7237 0001220  75.1797 284.9330 15.08844270 37918,6917.867,95.437,540.576,538.888,0.0
53982.0,STARLINK-5120,PAYLOAD,2023-06-09 16:47:31,15.08827166,0.0001156,53.2188,41.2378,89.1649,270.9476,0.00014947,2.091e-05,0.0,0 STARLINK-5120,1 53982U 22125U   23160.69967229  .00002091  00000-0  14947-3 0  9991,2 53982  53.2188  41.2378 0001156  89.1649 270.9476 15.08827166 37965,6917.92,95.438,540.584,538.985,0.0
53982.0,STARLINK-5120,PAYLOAD,2023-06-10 00:44:27,15.08838636,0.0001191,53.2193,39.7552,93.2048,266.908,0.00010522,1.387e-05,0.0,0 STARLINK-5120,1 53982U 22125U   23161.03086843  .00001387  00000-0  10522-3 0  9996,2 53982  53.2193  39.7552 0001191  93.2048 266.9080 15.08838636 38012,6917.885,95.438,540.573,538.926,0.0
53982.0,STARLINK-5120,PAYLOAD,2023-06-10 08:41:22,15.08837721,0.0001166,53.2193,38.2685,90.1052,270.0074,8.1931e-05,1.016e-05,0.0,0 STARLINK-5120,1 53982U 22125U   23161.36207084  .00001016  00000-0  81931-4 0  9996,2 53982  53.2193  38.2685 0001166  90.1052 270.0074 15.08837721 37984,6917.887,95.438,540.559,538.946,0.0
53982.0,STARLINK-5120,PAYLOAD,2023-06-10 18:13:41,15.08836329,0.0001238,53.219,36.4839,105.7938,254.3191,-6.5479e-05,-1.33e-05,0.0,0 STARLINK-5120,1 53982U 22125U   23161.75950910 -.00001330  00000-0 -65479-4 0  9992,2 53982  53.2190  36.4839 0001238 105.7938 254.3191 15.08836329 38044,6917.892,95.438,540.613,538.9,0.0
53982.0,STARLINK-5120,PAYLOAD,2023-06-11 08:32:09,15.08845212,0.000115,53.2196,33.808,86.5407,273.5717,-9.536e-06,-4.4e-06,0.0,0 STARLINK-5120,1 53982U 22125U   23162.35566909 -.00000440  00000-0 -95360-5 0  9994,2 53982  53.2196  33.8080 0001150  86.5407 273.5717 15.08845212 38216,6917.864,95.437,540.525,538.934,0.0
53982.0,STARLINK-5120,PAYLOAD,2023-06-11 18:04:28,15.08837983,0.0001035,53.2196,32.0236,93.6947,266.4163,0.00022415,3.281e-05,0.0,0 STARLINK-5120,1 53982U 22125U   23162.75311015  .00003281  00000-0  22415-3 0  9997,2 53982  53.2196  32.0236 0001035  93.6947 266.4163 15.08837983 38199,6917.887,95.438,540.468,539.036,0.0
53982.0,STARLINK-5120,PAYLOAD,2023-06-12 08:22:56,15.08843432,0.000107,53.2187,29.3466,83.757,276.3544,6.8648e-05,8.05e-06,0.0,0 STARLINK-5120,1 53982U 22125U   23163.34926757  .00000805  00000-0  68648-4 0  9996,2 53982  53.2187  29.3466 0001070  83.7570 276.3544 15.08843432 38283,6917.87,95.437,540.475,538.995,0.0
53982.0,STARLINK-5120,PAYLOAD,2023-06-12 21:06:02,15.0883817,9.89e-05,53.2189,26.968,86.2826,273.8279,0.00012709,1.735e-05,0.0,0 STARLINK-5120,1 53982U 22125U   23163.87919287  .00001735  00000-0  12709-3 0  9993,2 53982  53.2189  26.9680 0000989  86.2826 273.8279 15.08838170 38444,6917.886,95.438,540.435,539.067,0.0
53982.0,STARLINK-5120,PAYLOAD,2023-06-13 00:16:48,15.08845574,0.0001004,53.2182,26.3728,86.7086,273.4021,0.00011555,1.552e-05,0.0,0 STARLINK-5120,1 53982U 22125U   23164.01166777  .00001552  00000-0  11555-3 0  9993,2 53982  53.2182  26.3728 0001004  86.7086 273.4021 15.08845574 38465,6917.863,95.437,540.423,539.034,0.0
53982.0,STARLINK-5120,PAYLOAD,2023-06-13 14:35:16,15.08839623,0.0001098,53.2176,23.6967,84.6873,275.4244,3.8043e-05,3.18e-06,0.0,0 STARLINK-5120,1 53982U 22125U   23164.60783132  .00000318  00000-0  38043-4 0  9999,2 53982  53.2176  23.6967 0001098  84.6873 275.4244 15.08839623 38475,6917.882,95.438,540.506,538.987,0.0
53982.0,STARLINK-5120,PAYLOAD,2023-06-13 17:46:02,15.08843881,0.0001116,53.2184,23.102,86.1031,274.0088,5.5329e-05,5.93e-06,0.0,0 STARLINK-5120,1 53982U 22125U   23164.74030957  .00000593  00000-0  55329-4 0  9995,2 53982  53.2184  23.1020 0001116  86.1031 274.0088 15.08843881 38497,6917.869,95.437,540.506,538.961,0.0
